- !!map
  id:                 0
  name:               Sun
  radius:             174085500
  mass:               1.2427561695790107e+29
  stdGravParam:       8294527502621190000
  soi:                .inf
  color:              0xffff00

- !!map
  id:                 1
  name:               Mercury
  radius:             609925
  mass:               2.063117105913729e+22
  stdGravParam:       1376986250000
  soi:                28102247.688606102
  orbit:
    semiMajorAxis:    14477243411.472
    eccentricity:     0.2033547204116125
    inclination:      7.020894544262584
    argOfPeriapsis:   26.87734922097711
    ascNodeLongitude: 48.6509390838666
  meanAnomaly0:       5.580372162669762
  epoch:              0
  orbiting:           0
  color:              0x515059

- !!map
  id:                 2
  name:               Venus
  radius:             1512250
  atmosphereAlt:      86000
  mass:               3.042066134276254e+23
  stdGravParam:       20303662000000
  soi:                154070213.43673772
  orbit:
    semiMajorAxis:    27052387197.6167
    eccentricity:     0.009358687502771969
    inclination:      3.394232940100089
    argOfPeriapsis:   46.37282910903239
    ascNodeLongitude: 76.90359605163887
  meanAnomaly0:       5.580569883019108
  epoch:              0
  orbiting:           0
  color:              0xb26128

- !!map
  id:                 3
  name:               Earth
  radius:             1592750
  atmosphereAlt:      80000
  mass:               3.7326052492030474e+23
  stdGravParam:       24912527214755.9
  soi:                231162300.61525476
  orbit:
    semiMajorAxis:    37399565287.6105
    eccentricity:     0.01781154480208012
    inclination:      0.00332414560350639
    argOfPeriapsis:   156.3881093946221
    ascNodeLongitude: 311.7891048874449
  meanAnomaly0:       6.154817537337295
  epoch:              0
  orbiting:           0
  color:              0x4662

- !!map
  id:                 4
  name:               Moon
  radius:             434275
  mass:               4.5911182316533124e+21
  stdGravParam:       306425004135.237
  soi:                16541789.664238596
  orbit:
    semiMajorAxis:    96077109.4426765
    eccentricity:     0.05328149353682574
    inclination:      28.36267790798491
    argOfPeriapsis:   199.7640930160823
    ascNodeLongitude: 2.296616161126016
  meanAnomaly0:       3.8868698006324554
  epoch:              0
  orbiting:           3
  color:              0xffffff

- !!map
  id:                 5
  name:               Ryugu
  radius:             435
  mass:               55606231252715.64
  stdGravParam:       3711.3266925
  soi:                32289.982290306652
  orbit:
    semiMajorAxis:    44542315868.8013
    eccentricity:     0.1942618550394634
    inclination:      5.876682850608844
    argOfPeriapsis:   209.7446615424048
    ascNodeLongitude: 252.2430496615096
  meanAnomaly0:       128.1101408239382
  epoch:              0
  orbiting:           0
  color:              0xffffff

- !!map
  id:                 6
  name:               Eros
  radius:             4210
  mass:               15625373021740110
  stdGravParam:       1042884.27159
  soi:                377084.94633983343
  orbit:
    semiMajorAxis:    54533253491.598
    eccentricity:     0.22278188946206
    inclination:      10.82782330218545
    argOfPeriapsis:   178.9269951795186
    ascNodeLongitude: 304.2870401191066
  meanAnomaly0:       110.7776526746434
  epoch:              0
  orbiting:           0
  color:              0x6f5248

- !!map
  id:                 7
  name:               Mars
  radius:             843950
  atmosphereAlt:      73000
  mass:               4.010567926664504e+22
  stdGravParam:       2676773351293.69
  soi:                144313517.71812373
  orbit:
    semiMajorAxis:    56987424990.494
    eccentricity:     0.09314888581484417
    inclination:      1.849927423305627
    argOfPeriapsis:   285.3002933768046
    ascNodeLongitude: 49.69802620099254
  meanAnomaly0:       2.9726844215984443
  epoch:              0
  orbiting:           0
  color:              0xa06230

- !!map
  id:                 8
  name:               Phobos
  radius:             1812.5
  mass:               663697510122264.5
  stdGravParam:       44297.1629180903
  soi:                1809.5840325264423
  orbit:
    semiMajorAxis:    2344623.05227208
    eccentricity:     0.01539938155583979
    inclination:      1.093
    argOfPeriapsis:   357.7759243021914
    ascNodeLongitude: 46.48212553464923
  meanAnomaly0:       0.12540401573484683
  epoch:              0
  orbiting:           7
  color:              0x8e7362

- !!map
  id:                 9
  name:               Deimos
  radius:             1364
  mass:               90042866369135.19
  stdGravParam:       6009.73103007519
  soi:                2035.7781022288343
  orbit:
    semiMajorAxis:    5864528.00439845
    eccentricity:     0.00032946807986617
    inclination:      0.93
    argOfPeriapsis:   263.8963868784089
    ascNodeLongitude: 47.51893570799763
  meanAnomaly0:       5.646210530657005
  epoch:              0
  orbiting:           7
  color:              0x755e4f

- !!map
  id:                 10
  name:               Vesta
  radius:             43783.33
  mass:               16189193032696314000
  stdGravParam:       1080515310.58125
  soi:                9819201.504776426
  orbit:
    semiMajorAxis:    88336555950.7895
    eccentricity:     0.09006440364822228
    inclination:      7.134501510020114
    argOfPeriapsis:   147.6341892267416
    ascNodeLongitude: 104.4187846656265
  meanAnomaly0:       1.0967109090901666
  epoch:              0
  orbiting:           0
  color:              0xffffff

- !!map
  id:                 11
  name:               Ceres
  radius:             118250
  mass:               58650813568464120000
  stdGravParam:       3914531250
  soi:                19240726.432636645
  orbit:
    semiMajorAxis:    103434690578.293
    eccentricity:     0.07845358917584373
    inclination:      10.59802395005837
    argOfPeriapsis:   68.29904628060096
    ascNodeLongitude: 81.36903071871447
  meanAnomaly0:       1.0755562075855307
  epoch:              0
  orbiting:           0
  color:              0x7f7f7f

- !!map
  id:                 12
  name:               ChuryumovGerasimenko
  radius:             1800
  mass:               9978000000000
  stdGravParam:       665.961654
  soi:                47225.97588016195
  orbit:
    semiMajorAxis:    129514356558.525
    eccentricity:     0.6423513708237569
    inclination:      7.056239822741505
    argOfPeriapsis:   12.61270786033957
    ascNodeLongitude: 50.0167176216564
  meanAnomaly0:       1.1758149821993609
  epoch:              1038484783.908
  orbiting:           0
  color:              0xffffff

- !!map
  id:                 13
  name:               Jupiter
  radius:             17343250
  atmosphereAlt:      732000
  mass:               1.1863279194241344e+26
  stdGravParam:       7917908432612500
  soi:                12049044031.071775
  orbit:
    semiMajorAxis:    194547234664.939
    eccentricity:     0.0488142501712162
    inclination:      1.305819291275594
    argOfPeriapsis:   273.0614492411634
    ascNodeLongitude: 100.3783289028023
  meanAnomaly0:       5.298408493977084
  epoch:              0
  orbiting:           0
  color:              0xbe9666

- !!map
  id:                 14
  name:               Io
  radius:             452825
  mass:               5.581031000826304e+21
  stdGravParam:       372494752088.15
  soi:                1960086.1509171582
  orbit:
    semiMajorAxis:    105504573.630924
    eccentricity:     0.003545858426216978
    inclination:      0.05
    argOfPeriapsis:   231.2703460977786
    ascNodeLongitude: 358.046643167846
  meanAnomaly0:       3.4091064061869685
  epoch:              0
  orbiting:           13
  color:              0xa4a05c

- !!map
  id:                 15
  name:               Europa
  radius:             387700
  mass:               2.999133593525628e+21
  stdGravParam:       200171173432.681
  soi:                2431885.2849218296
  orbit:
    semiMajorAxis:    167813409.385429
    eccentricity:     0.009511727119926178
    inclination:      0.47
    argOfPeriapsis:   53.13210737539627
    ascNodeLongitude: 358.9360081847504
  meanAnomaly0:       4.821737415499958
  epoch:              0
  orbiting:           13
  color:              0xc5c6ac

- !!map
  id:                 16
  name:               Ganymede
  radius:             656025
  mass:               9.259242966803772e+21
  stdGravParam:       617989653333.384
  soi:                6089844.188919863
  orbit:
    semiMajorAxis:    267705867.22363
    eccentricity:     0.001190086418361844
    inclination:      0.2
    argOfPeriapsis:   139.2992571342065
    ascNodeLongitude: 358.0125219248113
  meanAnomaly0:       4.060950472376478
  epoch:              0
  orbiting:           13
  color:              0x947f64

- !!map
  id:                 17
  name:               Callisto
  radius:             602325
  mass:               6.722886071757772e+21
  stdGravParam:       448705585087.329
  soi:                9425796.3502632
  orbit:
    semiMajorAxis:    470953091.64338
    eccentricity:     0.007973319796896609
    inclination:      0.192
    argOfPeriapsis:   320.7359683492656
    ascNodeLongitude: 358.5022563372704
  meanAnomaly0:       0.27604372240404196
  epoch:              0
  orbiting:           13
  color:              0x675642

